{
  "norad_id": 55830,
  "name": "ONEWEB-0671",
  "history": [
    {
      "epoch": "2026-03-28T22:12:13.004064Z",
      "apogee_km": 1187.1378033076498,
      "perigee_km": 1184.3922581485367,
      "latitude_deg": -5.646069035205126e-05,
      "longitude_deg": 161.5854084708866,
      "height_km": 1188.6259281543134,
      "semi_major_axis_km": 7563.902030728093,
      "eccentricity": 0.00018149,
      "inclination_deg": 87.9199,
      "raan_deg": 320.9782,
      "arg_perigee_deg": 88.4261,
      "mean_anomaly_deg": 271.7079,
      "mean_motion_rev_day": 13.19726445
    },
    {
      "epoch": "2026-03-29T03:39:44.700480Z",
      "apogee_km": 1187.1418516851945,
      "perigee_km": 1184.3870787715596,
      "latitude_deg": 7.23874104163824e-05,
      "longitude_deg": 79.43385963841051,
      "height_km": 1188.6299149291196,
      "semi_major_axis_km": 7563.901465228377,
      "eccentricity": 0.0001821,
      "inclination_deg": 87.9197,
      "raan_deg": 320.9329,
      "arg_perigee_deg": 88.6221,
      "mean_anomaly_deg": 271.5121,
      "mean_motion_rev_day": 13.19726593
    },
    {
      "epoch": "2026-03-30T01:29:51.519840Z",
      "apogee_km": 1187.1487833719748,
      "perigee_km": 1184.382210394714,
      "latitude_deg": -1.8397578832250906e-05,
      "longitude_deg": 110.82770192684909,
      "height_km": 1188.6334510999077,
      "semi_major_axis_km": 7563.902496883344,
      "eccentricity": 0.00018288,
      "inclination_deg": 87.9195,
      "raan_deg": 320.7519,
      "arg_perigee_deg": 88.7318,
      "mean_anomaly_deg": 271.4024,
      "mean_motion_rev_day": 13.19726323
    },
    {
      "epoch": "2026-03-30T14:14:05.497152Z",
      "apogee_km": 1187.1462296645786,
      "perigee_km": 1184.3831363797708,
      "latitude_deg": 1.0162342857412791e-05,
      "longitude_deg": -80.85933409784839,
      "height_km": 1188.627392766497,
      "semi_major_axis_km": 7563.901683022174,
      "eccentricity": 0.00018265,
      "inclination_deg": 87.9194,
      "raan_deg": 320.6462,
      "arg_perigee_deg": 88.5127,
      "mean_anomaly_deg": 271.6215,
      "mean_motion_rev_day": 13.19726536
    },
    {
      "epoch": "2026-03-30T21:30:47.738304Z",
      "apogee_km": 1187.1441250290663,
      "perigee_km": 1184.3826962671483,
      "latitude_deg": 2.3979184843333177e-05,
      "longitude_deg": 169.6054486723308,
      "height_km": 1188.6234246918045,
      "semi_major_axis_km": 7563.900410648107,
      "eccentricity": 0.00018254,
      "inclination_deg": 87.9194,
      "raan_deg": 320.5859,
      "arg_perigee_deg": 88.3999,
      "mean_anomaly_deg": 271.7343,
      "mean_motion_rev_day": 13.19726869
    },
    {
      "epoch": "2026-03-31T21:10:05.087712Z",
      "apogee_km": 1187.144540646692,
      "perigee_km": 1184.3822042306765,
      "latitude_deg": -8.403599938791305e-05,
      "longitude_deg": 173.61568801819908,
      "height_km": 1188.6247187565045,
      "semi_major_axis_km": 7563.900372438684,
      "eccentricity": 0.0001826,
      "inclination_deg": 87.9196,
      "raan_deg": 320.3899,
      "arg_perigee_deg": 88.455,
      "mean_anomaly_deg": 271.6791,
      "mean_motion_rev_day": 13.19726879
    },
    {
      "epoch": "2026-04-01T20:49:22.379232Z",
      "apogee_km": 1187.1435052769739,
      "perigee_km": 1184.3826817428435,
      "latitude_deg": 2.784979380056061e-05,
      "longitude_deg": 177.62577704986748,
      "height_km": 1188.6248354920594,
      "semi_major_axis_km": 7563.900093509908,
      "eccentricity": 0.0001825,
      "inclination_deg": 87.919,
      "raan_deg": 320.1935,
      "arg_perigee_deg": 88.4714,
      "mean_anomaly_deg": 271.6628,
      "mean_motion_rev_day": 13.19726952
    },
    {
      "epoch": "2026-04-02T20:28:39.694080Z",
      "apogee_km": 1187.1353340306414,
      "perigee_km": 1184.3911510226535,
      "latitude_deg": 5.589091836938439e-05,
      "longitude_deg": -178.36403489115116,
      "height_km": 1188.6210902954838,
      "semi_major_axis_km": 7563.900242526647,
      "eccentricity": 0.0001814,
      "inclination_deg": 87.9188,
      "raan_deg": 319.9973,
      "arg_perigee_deg": 88.2989,
      "mean_anomaly_deg": 271.8352,
      "mean_motion_rev_day": 13.19726913
    },
    {
      "epoch": "2026-04-02T22:17:50.258688Z",
      "apogee_km": 1187.13509644243,
      "perigee_km": 1184.3915185228989,
      "latitude_deg": -3.996789260680837e-05,
      "longitude_deg": 154.25211412674065,
      "height_km": 1188.621033644614,
      "semi_major_axis_km": 7563.900307482664,
      "eccentricity": 0.00018136,
      "inclination_deg": 87.9188,
      "raan_deg": 319.9822,
      "arg_perigee_deg": 88.2928,
      "mean_anomaly_deg": 271.8412,
      "mean_motion_rev_day": 13.19726896
    },
    {
      "epoch": "2026-04-03T14:40:25.264128Z",
      "apogee_km": 1187.1516797539552,
      "perigee_km": 1184.3711906891676,
      "latitude_deg": -1.535367568593185e-05,
      "longitude_deg": -92.20209543535232,
      "height_km": 1188.6109229217284,
      "semi_major_axis_km": 7563.898435221561,
      "eccentricity": 0.0001838,
      "inclination_deg": 87.9185,
      "raan_deg": 319.8464,
      "arg_perigee_deg": 87.9778,
      "mean_anomaly_deg": 272.1565,
      "mean_motion_rev_day": 13.19727386
    },
    {
      "epoch": "2026-04-04T21:36:24.875424Z",
      "apogee_km": 1187.1726146786405,
      "perigee_km": 1184.3527928690728,
      "latitude_deg": -1.6390696618538787e-05,
      "longitude_deg": 162.27234081762904,
      "height_km": 1188.6178712577469,
      "semi_major_axis_km": 7563.899703773856,
      "eccentricity": 0.0001864,
      "inclination_deg": 87.9179,
      "raan_deg": 319.5896,
      "arg_perigee_deg": 88.239,
      "mean_anomaly_deg": 271.8956,
      "mean_motion_rev_day": 13.19727054
    },
    {
      "epoch": "2026-04-05T13:58:59.943072Z",
      "apogee_km": 1187.1703420353215,
      "perigee_km": 1184.3529410693172,
      "latitude_deg": 5.447548121254514e-06,
      "longitude_deg": -84.18222989600896,
      "height_km": 1188.6103276367044,
      "semi_major_axis_km": 7563.8986415523195,
      "eccentricity": 0.00018624,
      "inclination_deg": 87.9181,
      "raan_deg": 319.4537,
      "arg_perigee_deg": 87.9737,
      "mean_anomaly_deg": 272.1609,
      "mean_motion_rev_day": 13.19727332
    },
    {
      "epoch": "2026-04-05T15:48:10.512864Z",
      "apogee_km": 1187.1667008414488,
      "perigee_km": 1184.3574687213604,
      "latitude_deg": -3.200762116058697e-05,
      "longitude_deg": -111.56610061476813,
      "height_km": 1188.6093165573725,
      "semi_major_axis_km": 7563.899084781404,
      "eccentricity": 0.0001857,
      "inclination_deg": 87.9182,
      "raan_deg": 319.4386,
      "arg_perigee_deg": 87.9078,
      "mean_anomaly_deg": 272.2267,
      "mean_motion_rev_day": 13.19727216
    },
    {
      "epoch": "2026-04-06T00:54:03.312576Z",
      "apogee_km": 1187.173962184569,
      "perigee_km": 1184.3502073782392,
      "latitude_deg": 5.7448419678989744e-05,
      "longitude_deg": 111.51476153577997,
      "height_km": 1188.610935952186,
      "semi_major_axis_km": 7563.899084781404,
      "eccentricity": 0.00018666,
      "inclination_deg": 87.9181,
      "raan_deg": 319.3631,
      "arg_perigee_deg": 87.9856,
      "mean_anomaly_deg": 272.1491,
      "mean_motion_rev_day": 13.19727216
    },
    {
      "epoch": "2026-04-07T07:50:02.798592Z",
      "apogee_km": 1187.1831435838012,
      "perigee_km": 1184.33352165619,
      "latitude_deg": 5.910988289996588e-05,
      "longitude_deg": 5.9898188555370995,
      "height_km": 1188.6113664391244,
      "semi_major_axis_km": 7563.895332619995,
      "eccentricity": 0.00018837,
      "inclination_deg": 87.9179,
      "raan_deg": 319.1064,
      "arg_perigee_deg": 88.1734,
      "mean_anomaly_deg": 271.9615,
      "mean_motion_rev_day": 13.19728198
    },
    {
      "epoch": "2026-04-08T14:46:02.335584Z",
      "apogee_km": 1187.1934648305578,
      "perigee_km": 1184.3268990765418,
      "latitude_deg": 3.20775591728687e-05,
      "longitude_deg": -99.53513837394314,
      "height_km": 1188.610379005155,
      "semi_major_axis_km": 7563.89718195355,
      "eccentricity": 0.00018949,
      "inclination_deg": 87.9176,
      "raan_deg": 318.8499,
      "arg_perigee_deg": 88.0715,
      "mean_anomaly_deg": 272.0635,
      "mean_motion_rev_day": 13.19727714
    },
    {
      "epoch": "2026-04-09T12:36:09.051264Z",
      "apogee_km": 1187.2008636017545,
      "perigee_km": 1184.3190188671451,
      "latitude_deg": 1.3951559884941402e-05,
      "longitude_deg": -68.14116349536583,
      "height_km": 1188.6145371556893,
      "semi_major_axis_km": 7563.8969412344495,
      "eccentricity": 0.0001905,
      "inclination_deg": 87.9173,
      "raan_deg": 318.6686,
      "arg_perigee_deg": 88.2574,
      "mean_anomaly_deg": 271.8777,
      "mean_motion_rev_day": 13.19727777
    },
    {
      "epoch": "2026-04-10T03:09:33.549120Z",
      "apogee_km": 1187.202038291971,
      "perigee_km": 1184.3197393624541,
      "latitude_deg": 1.1154949428258421e-05,
      "longitude_deg": 72.78803357125203,
      "height_km": 1188.6142061356422,
      "semi_major_axis_km": 7563.897888827212,
      "eccentricity": 0.00019053,
      "inclination_deg": 87.9171,
      "raan_deg": 318.5477,
      "arg_perigee_deg": 88.2069,
      "mean_anomaly_deg": 271.9282,
      "mean_motion_rev_day": 13.19727529
    },
    {
      "epoch": "2026-04-11T21:00:36.942048Z",
      "apogee_km": 1187.2541326674218,
      "perigee_km": 1184.2890804936424,
      "latitude_deg": -1.1525621010557894e-05,
      "longitude_deg": 162.95783498229693,
      "height_km": 1188.6165095969352,
      "semi_major_axis_km": 7563.908606580531,
      "eccentricity": 0.000196,
      "inclination_deg": 87.9172,
      "raan_deg": 318.2004,
      "arg_perigee_deg": 87.9354,
      "mean_anomaly_deg": 272.2003,
      "mean_motion_rev_day": 13.19724724
    },
    {
      "epoch": "2026-04-13T00:18:15.667776Z",
      "apogee_km": 1187.2351919497733,
      "perigee_km": 1184.3137067915677,
      "latitude_deg": 2.196411525139381e-05,
      "longitude_deg": 112.19894983199248,
      "height_km": 1188.6143740356329,
      "semi_major_axis_km": 7563.91144937067,
      "eccentricity": 0.00019312,
      "inclination_deg": 87.9173,
      "raan_deg": 317.9738,
      "arg_perigee_deg": 87.7074,
      "mean_anomaly_deg": 272.428,
      "mean_motion_rev_day": 13.1972398
    }
  ]
}